{
  "norad_id": 62129,
  "name": "STARLINK-32462",
  "history": [
    {
      "epoch": "2026-03-28T21:19:29.570016",
      "apogee_km": 484.7745843698867,
      "perigee_km": 481.12297729561124,
      "latitude_deg": 14.700590902596431,
      "longitude_deg": 118.19952223985456,
      "semi_major_axis_km": 6861.085780832748,
      "eccentricity": 0.00026611,
      "inclination_deg": 43.005,
      "raan_deg": 24.4337,
      "arg_perigee_deg": 284.8923,
      "mean_anomaly_deg": 75.1633,
      "mean_motion_rev_day": 15.27613502
    },
    {
      "epoch": "2026-03-29T03:36:06.531840",
      "apogee_km": 484.16587708532825,
      "perigee_km": 481.69314871407914,
      "latitude_deg": 27.5098362402741,
      "longitude_deg": 143.30725759989582,
      "semi_major_axis_km": 6861.066512899703,
      "eccentricity": 0.0001802,
      "inclination_deg": 43.0015,
      "raan_deg": 22.9562,
      "arg_perigee_deg": 269.6411,
      "mean_anomaly_deg": 90.4235,
      "mean_motion_rev_day": 15.27619937
    }
  ]
}